{
    "links": {
        "self": "http://www.neowsapp.com/rest/v1/neo/3698519?api_key=iIulBulltgU6a56xZRHN4H3l9WmuAYTsLGpBGhQ2"
    },
    "id": "3698519",
    "neo_reference_id": "3698519",
    "name": "(2014 HR197)",
    "designation": "2014 HR197",
    "nasa_jpl_url": "http://ssd.jpl.nasa.gov/sbdb.cgi?sstr=3698519",
    "absolute_magnitude_h": 27.1,
    "estimated_diameter": {
        "kilometers": {
            "estimated_diameter_min": 0.0101054342,
            "estimated_diameter_max": 0.0225964377
        },
        "meters": {
            "estimated_diameter_min": 10.1054341542,
            "estimated_diameter_max": 22.5964377109
        },
        "miles": {
            "estimated_diameter_min": 0.0062792237,
            "estimated_diameter_max": 0.0140407711
        },
        "feet": {
            "estimated_diameter_min": 33.1543125905,
            "estimated_diameter_max": 74.1352966996
        }
    },
    "is_potentially_hazardous_asteroid": false,
    "close_approach_data": [
        {
            "close_approach_date": "2014-05-04",
            "close_approach_date_full": "2014-May-04 14:11",
            "epoch_date_close_approach": 1399212660000,
            "relative_velocity": {
                "kilometers_per_second": "17.1060803705",
                "kilometers_per_hour": "61581.8893338832",
                "miles_per_hour": "38264.5911808231"
            },
            "miss_distance": {
                "astronomical": "0.0208245338",
                "lunar": "8.1007436482",
                "kilometers": "3115305.900223006",
                "miles": "1935761.3239532428"
            },
            "orbiting_body": "Earth"
        }
    ],
    "orbital_data": {
        "orbit_id": "8",
        "orbit_determination_date": "2017-04-06 08:40:56",
        "first_observation_date": "2014-04-24",
        "last_observation_date": "2014-04-25",
        "data_arc_in_days": 1,
        "observations_used": 15,
        "orbit_uncertainty": "9",
        "minimum_orbit_intersection": ".00409784",
        "jupiter_tisserand_invariant": "4.175",
        "epoch_osculation": "2456772.5",
        "eccentricity": ".5855001445963138",
        "semi_major_axis": "1.585653713085589",
        "inclination": "3.581339118784391",
        "ascending_node_longitude": "31.2500401254938",
        "orbital_period": "729.3079540939887",
        "perihelion_distance": ".6572532347942948",
        "perihelion_argument": "278.472404891293",
        "aphelion_distance": "2.514054191376883",
        "perihelion_time": "2456833.368912173260",
        "mean_anomaly": "329.9539703915671",
        "mean_motion": ".4936186393952389",
        "equinox": "J2000",
        "orbit_class": {
            "orbit_class_type": "APO",
            "orbit_class_description": "Near-Earth asteroid orbits which cross the Earth’s orbit similar to that of 1862 Apollo",
            "orbit_class_range": "a (semi-major axis) > 1.0 AU; q (perihelion) < 1.017 AU"
        }
    },
    "is_sentry_object": false
}